OBJECT_NAME,OBJECT_ID,EPOCH,MEAN_MOTION,ECCENTRICITY,INCLINATION,RA_OF_ASC_NODE,ARG_OF_PERICENTER,MEAN_ANOMALY,EPHEMERIS_TYPE,CLASSIFICATION_TYPE,NORAD_CAT_ID,ELEMENT_SET_NO,REV_AT_EPOCH,BSTAR,MEAN_MOTION_DOT,MEAN_MOTION_DDOT
UNIBRITE,2013-009G,2026-07-13T11:33:14.053824,14.36423403,.00096582,98.4045,13.3853,151.6835,208.4878,0,U,39092,999,70076,.43688465E-4,.85E-6,0
AIST-2 (RS43),2013-015D,2026-07-13T20:33:23.925888,15.26554016,.001713,64.8675,170.1079,248.2323,111.6985,0,U,39133,999,72797,.12456E-3,.3069E-4,0
GAOFEN-1,2013-018A,2026-07-13T19:57:00.705888,14.76517851,.0016933,97.9092,266.3560,175.4782,184.6584,0,U,39150,999,71217,.6573E-4,.408E-5,0
NEE-01 PEGASO,2013-018B,2026-07-13T20:38:01.237056,14.93785263,.0013652,98.1251,339.8978,78.3095,281.9655,0,U,39151,999,71468,.10827E-3,.1088E-4,0
TURKSAT-3USAT,2013-018C,2026-07-13T19:50:21.302016,14.96586159,.001219,97.7939,285.5441,18.2174,341.9482,0,U,39152,999,71507,.90949E-4,.977E-5,0
CUBEBUG-1 (CAPITAN BETO),2013-018D,2026-07-13T10:19:26.549760,14.97451881,.00122934,98.1684,355.5460,63.3533,296.8945,0,U,39153,999,71499,.10716321E-3,.1184E-4,0
PROBA-V,2013-021A,2026-07-13T19:51:18.338112,14.23603309,.0005295,98.3605,172.1212,63.2222,296.9498,0,U,39159,999,68490,.27093E-4,.21E-6,0
ESTCUBE 1,2013-021C,2026-07-13T16:07:10.604064,14.81474250,.0006679,97.7282,247.9259,292.0909,67.9595,0,U,39161,999,70894,.10308E-3,.757E-5,0
ARIRANG-5 (KOMPSAT-5),2013-042A,2026-07-13T20:03:37.634400,15.04524289,.0005578,97.6210,21.1626,62.5824,297.5969,0,U,39227,999,70786,.44161E-4,.558E-5,0
GONETS-M 5,2013-048A,2026-07-13T20:09:24.183936,12.42892789,.0017322,82.4846,326.7653,152.4873,207.7128,0,U,39249,999,58219,.37286E-3,.62E-6,0
GONETS-M 7,2013-048C,2026-07-13T21:11:16.652832,12.42915539,.0018084,82.4913,329.6748,153.6740,206.5263,0,U,39251,999,58215,.11171E-3,.25E-6,0
FENGYUN 3C,2013-052A,2026-07-13T21:35:32.847072,14.15760587,.0013731,98.4997,167.5504,309.9747,50.0221,0,U,39260,999,66234,.35621E-4,.28E-6,0
CASSIOPE,2013-055A,2026-07-13T20:12:39.364992,15.27362633,.0283142,80.9125,34.2898,332.4903,26.1575,0,U,39265,999,67173,.23784E-3,.22176E-3,-.52913E-6
APRIZESAT 7,2013-066A,2026-07-13T20:28:58.634688,14.91617545,.0037153,97.7721,147.6927,121.5967,238.8887,0,U,39416,999,68520,.4775E-4,.428E-5,0
ZACUBE-1 (TSHEPISOSAT),2013-066B,2026-07-13T20:50:21.221088,15.01325493,.0043946,97.8009,157.3372,159.4655,200.8348,0,U,39417,999,68473,.10671E-3,.1337E-4,0
APRIZESAT 8,2013-066K,2026-07-13T20:15:08.678880,14.87695316,.0045374,97.8230,141.9422,196.3604,163.6151,0,U,39425,999,68363,.47926E-4,.387E-5,0
CINEMA-3 (KHUSAT-2),2013-066L,2026-07-13T17:50:23.997120,14.78350872,.0091017,97.8380,106.2431,125.6211,235.3521,0,U,39426,999,67837,.87423E-4,.627E-5,0
TRITON-1,2013-066M,2026-07-13T20:02:07.022400,14.81790736,.0090474,97.8228,104.0337,146.5026,214.1955,0,U,39427,999,67803,.94761E-4,.746E-5,0
DELFI-N3XT,2013-066N,2026-07-13T19:30:33.863616,14.95350831,.0075759,97.8333,115.1023,117.3044,243.5917,0,U,39428,999,67860,.29042E-3,.333E-4,0
GOMX-1,2013-066Q,2026-07-13T19:25:36.252768,14.69541249,.0128418,97.6473,33.5927,352.6714,7.2612,0,U,39430,999,67382,.13575E-3,.861E-5,0
BRITE-PL1 (LEM),2013-066R,2026-07-13T17:37:51.314016,14.51386767,.01885,97.7980,305.1709,288.7899,69.2932,0,U,39431,999,66778,.45846E-4,.178E-5,0
ICUBE-1,2013-066S,2026-07-13T11:37:47.219520,15.26470787,.00143068,97.5699,180.4937,232.7085,127.2850,0,U,39432,999,68842,.27036737E-3,.6995E-4,0
VELOX-PII,2013-066Y,2026-07-13T20:09:10.637280,14.93251018,.0050995,97.8757,146.2393,254.1810,105.3784,0,U,39438,999,68181,.10296E-3,.1042E-4,0
CUBEBUG-2 (LO-74),2013-066AA,2026-07-13T20:32:08.034720,14.93961470,.0055843,97.8911,143.9522,299.8965,59.6713,0,U,39440,999,68097,.18634E-3,.1982E-4,0
NEE-02 KRYSAOR,2013-066AB,2026-07-13T19:04:13.533312,14.86735376,.0065556,97.8897,133.8221,343.8948,16.0182,0,U,39441,999,68015,.13694E-3,.1207E-4,0
FUNCUBE-1 (AO-73),2013-066AE,2026-07-13T10:29:12.641568,15.09805136,.00380208,97.8287,166.4387,113.3139,247.2098,0,U,39444,999,68362,.22112613E-3,.3565E-4,0
HINCUBE,2013-066AF,2026-07-13T21:15:37.902240,15.08576871,.0034692,97.7977,163.8162,118.5503,241.9224,0,U,39445,999,68355,.2117E-3,.3286E-4,0
UWE-3,2013-066AG,2026-07-13T19:35:44.816352,14.97193233,.0047496,97.8703,151.0751,229.2786,130.4306,0,U,39446,999,68156,.16225E-3,.1855E-4,0
SMDC ONE 2.4,2013-072H,2026-07-13T12:56:28.601088,15.18779497,.0147904,120.4908,93.8691,46.7780,314.5539,0,U,39469,999,12183,.34549E-3,.9264E-4,0
CP8 (IPEX),2013-072K,2026-07-13T13:20:01.845024,15.08394380,.0168634,120.4682,38.6391,30.0113,331.0500,0,U,39471,999,11921,.18279E-3,.3569E-4,0
COSMOS 2488 (RODNIK-S 7),2013-076A,2026-07-13T20:13:47.625312,12.42906839,.0020621,82.4846,152.0887,40.3521,319.9084,0,U,39483,999,56920,.83867E-3,.126E-5,0
COSMOS 2489 (RODNIK-S 8),2013-076B,2026-07-13T21:34:48.537696,12.42880253,.0022441,82.4881,153.4411,39.9270,320.3455,0,U,39484,999,56926,.15088E-3,.31E-6,0
COSMOS 2490 (RODNIK-S 9),2013-076C,2026-07-13T20:54:22.854240,12.42879438,.0022825,82.4830,151.5144,54.8496,305.4718,0,U,39485,999,56919,.37769E-3,.62E-6,0
AIST-1 (RS41),2013-078C,2026-07-13T20:18:04.417344,14.96137092,.0016523,82.4152,245.0484,182.8883,177.2246,0,U,39492,999,67923,.85677E-4,.992E-5,0
KAZEOSAT 1,2014-024A,2026-07-13T19:18:22.318272,14.42036735,.000125,98.3205,266.5879,81.1285,279.0046,0,U,39731,999,64239,.22842E-4,.32E-6,0
COSMOS 2496 (RODNIK-S 10),2014-028A,2026-07-13T19:53:09.317184,12.42879244,.0020924,82.4458,92.0460,23.7800,336.4241,0,U,39761,999,55082,.20046E-3,.38E-6,0
COSMOS 2497 (RODNIK-S 11),2014-028B,2026-07-13T19:17:04.265376,12.42894831,.002139,82.4506,93.7617,18.9132,341.2738,0,U,39762,999,55082,-.19887E-3,-.18E-6,0
COSMOS 2498 (RODNIK-S 12),2014-028C,2026-07-13T20:38:04.555680,12.42980684,.0022108,82.4467,92.2020,18.3747,341.8126,0,U,39763,999,55086,.66537E-4,.19E-6,0
COSMOS 2499 (RS47),2014-028E,2026-07-13T20:55:59.949696,12.82903198,.0230413,82.4472,234.4221,299.1335,58.6880,0,U,39765,999,56844,.15486E-3,.5E-6,0
HODOYOSHI-4,2014-033B,2026-07-13T19:04:58.686816,14.88186199,.0022621,97.5454,18.3350,214.4142,145.5612,0,U,40011,999,65276,.92707E-4,.806E-5,0
UNISAT-6,2014-033C,2026-07-13T10:05:57.317856,14.88362420,.00443241,97.7906,346.6769,343.7133,16.2657,0,U,40012,999,65006,.1319415E-3,.1186E-4,0
DEIMOS-2,2014-033D,2026-07-13T20:15:10.192608,14.93791223,.0000836,97.5799,68.3928,97.3985,262.7330,0,U,40013,999,64170,.33869E-4,.305E-5,0
BUGSAT-1 (TITA),2014-033E,2026-07-13T20:07:50.966976,15.15873446,.0029234,98.0438,288.9514,90.3909,270.0672,0,U,40014,999,65987,.17586E-3,.3324E-4,0
SAUDISAT 4,2014-033G,2026-07-13T19:58:19.983072,14.79574827,.0044367,97.7615,340.0505,348.5346,11.4852,0,U,40016,999,65001,.38468E-4,.24E-5,0
APRIZESAT 9,2014-033J,2026-07-13T19:32:08.157984,14.74251612,.0067411,97.9092,327.3664,114.2879,246.5390,0,U,40018,999,64748,.56551E-4,.335E-5,0
BRITE-CA1 (TORONTO),2014-033L,2026-07-13T21:00:55.135296,14.72721023,.0078341,97.9770,323.3165,190.4879,169.4699,0,U,40020,999,64614,.87417E-4,.531E-5,0
DUCHIFAT-1,2014-033M,2026-07-13T16:55:20.043840,15.70713406,.0002261,98.0429,257.7182,251.1846,108.9169,0,U,40021,999,65990,.69968E-3,.87109E-3,0
NANOSATC-BR1,2014-033Q,2026-07-13T15:50:44.399040,15.32295994,.0005323,98.0712,229.4089,100.8621,259.3218,0,U,40024,999,65803,.32983E-3,.10203E-3,0
QB50P1,2014-033R,2026-07-13T12:13:07.720032,15.18650045,.0010348,98.0963,207.5077,130.1673,230.0467,0,U,40025,999,65702,.23878E-3,.4875E-4,0
DTUSAT-2,2014-033W,2026-07-13T12:31:25.197888,15.15340121,.0009206,98.0873,193.9283,136.6291,223.5665,0,U,40030,999,65667,.19628E-3,.3628E-4,0
QB50P2,2014-033Y,2026-07-13T10:44:25.202688,15.15492857,.00093578,98.0758,192.9699,88.7327,271.4976,0,U,40032,999,65664,.19749502E-3,.3667E-4,0
PERSEUS-M1,2014-033AF,2026-07-13T19:06:55.261152,14.95712422,.0010828,97.9652,139.3677,201.1513,158.9261,0,U,40039,999,65461,.12116E-3,.1289E-4,0
POLYITAN-1,2014-033AJ,2026-07-13T14:32:25.865952,15.34182579,.0008032,98.0935,223.3833,69.0033,291.2066,0,U,40042,999,65764,.34337E-3,.11285E-3,0
TIGRISAT,2014-033AK,2026-07-13T15:50:50.074656,14.85246908,.004875,97.7861,344.0710,349.4137,10.6048,0,U,40043,999,64955,.97538E-4,.798E-5,0
AISAT,2014-034B,2026-07-13T18:03:43.520256,15.09314950,.0010782,98.2375,109.1036,125.6240,234.5993,0,U,40054,999,65121,.35231E-3,.5553E-4,0
CANX-4,2014-034C,2026-07-13T15:09:03.106080,14.81309629,.0011467,98.3086,70.9111,288.5031,71.4934,0,U,40055,999,64844,.64859E-4,.449E-5,0
CANX-5,2014-034D,2026-07-13T15:06:21.049056,14.81326996,.001146,98.3088,70.9543,288.7067,71.2900,0,U,40056,999,63925,.65049E-4,.451E-5,0
VELOX-I,2014-034E,2026-07-13T20:15:01.749600,14.98118453,.0006851,98.2536,101.3619,167.1913,192.9483,0,U,40057,999,65059,.14254E-3,.1623E-4,0
GONETS-M 10,2014-036C,2026-07-13T20:59:36.595104,12.42945915,.0022964,82.5125,291.0990,85.2054,275.1647,0,U,40063,999,54556,-.36837E-3,-.41E-6,0
METEOR-M 2,2014-037A,2026-07-13T21:26:59.091072,14.21469614,.0005236,98.5122,169.6882,331.1561,28.9326,0,U,40069,999,62311,.56136E-4,.81E-6,0
DX1,2014-037C,2026-07-13T21:17:30.714720,14.90058187,.0006897,98.3875,158.2127,174.1076,186.0223,0,U,40071,999,65008,.14841E-4,.8E-6,0
UKUBE-1,2014-037F,2026-07-13T11:26:38.781600,15.13935151,.00033271,98.4240,200.5192,92.0376,268.1233,0,U,40074,999,65253,.2513254E-3,.4476E-4,0
GAOFEN-2,2014-049A,2026-07-13T20:46:04.181952,14.80925464,.0008148,98.0105,259.0453,138.4313,221.7520,0,U,40118,999,64318,.35396E-4,.22E-5,0
BRITE-PL2 (HEWELIUSZ),2014-049B,2026-07-13T18:00:24.384672,14.94684980,.001448,97.9120,306.9592,26.9813,333.2156,0,U,40119,999,64541,.65131E-4,.648E-5,0
CBERS 4,2014-079A,2026-07-13T20:56:14.872704,14.35515011,.0000857,98.3526,250.8647,51.7624,308.3639,0,U,40336,999,60778,-.30863E-4,-.131E-5,0
SMAP,2015-003A,2026-07-13T19:33:21.864960,14.63388478,.000159,98.1283,201.5329,95.1775,264.9608,0,U,40376,999,61151,.48892E-4,.206E-5,0
